CCSDS_OMM_VERS = 2.0
CREATION_DATE  = 
ORIGINATOR     = 

OBJECT_NAME    = SL-16 R/B
OBJECT_ID      = 1992-093B
CENTER_NAME    = EARTH
REF_FRAME      = TEME
TIME_SYSTEM    = UTC
MEAN_ELEMENT_THEORY = SGP/SGP4

EPOCH          = 2025-11-12T13:37:11.063424
MEAN_MOTION    = 14.15423976
ECCENTRICITY   = .0002818
INCLINATION    = 71.0215
RA_OF_ASC_NODE = 250.1300
ARG_OF_PERICENTER = 154.7206
MEAN_ANOMALY   = 205.4056

EPHEMERIS_TYPE = 0
CLASSIFICATION_TYPE = U
NORAD_CAT_ID   = 22285
ELEMENT_SET_NO = 999
REV_AT_EPOCH   = 69658
BSTAR          = .22825449E-3
MEAN_MOTION_DOT = .398E-5
MEAN_MOTION_DDOT = 0

CCSDS_OMM_VERS = 2.0
CREATION_DATE  = 
ORIGINATOR     = 

OBJECT_NAME    = COSMOS 2228
OBJECT_ID      = 1992-094A
CENTER_NAME    = EARTH
REF_FRAME      = TEME
TIME_SYSTEM    = UTC
MEAN_ELEMENT_THEORY = SGP/SGP4

EPOCH          = 2025-11-12T22:31:03.520416
MEAN_MOTION    = 14.96531898
ECCENTRICITY   = .00173111
INCLINATION    = 82.5193
RA_OF_ASC_NODE = 349.0473
ARG_OF_PERICENTER = 340.0151
MEAN_ANOMALY   = 20.0391

EPHEMERIS_TYPE = 0
CLASSIFICATION_TYPE = U
NORAD_CAT_ID   = 22286
ELEMENT_SET_NO = 999
REV_AT_EPOCH   = 75859
BSTAR          = .46891187E-3
MEAN_MOTION_DOT = .5371E-4
MEAN_MOTION_DDOT = 0

CCSDS_OMM_VERS = 2.0
CREATION_DATE  = 
ORIGINATOR     = 

OBJECT_NAME    = SL-16 R/B
OBJECT_ID      = 1993-016B
CENTER_NAME    = EARTH
REF_FRAME      = TEME
TIME_SYSTEM    = UTC
MEAN_ELEMENT_THEORY = SGP/SGP4

EPOCH          = 2025-11-12T16:00:22.569696
MEAN_MOTION    = 14.15280330
ECCENTRICITY   = .0009127
INCLINATION    = 71.0057
RA_OF_ASC_NODE = 100.9617
ARG_OF_PERICENTER = 152.4184
MEAN_ANOMALY   = 207.7425

EPHEMERIS_TYPE = 0
CLASSIFICATION_TYPE = U
NORAD_CAT_ID   = 22566
ELEMENT_SET_NO = 999
REV_AT_EPOCH   = 68561
BSTAR          = .18329516E-3
MEAN_MOTION_DOT = .309E-5
MEAN_MOTION_DDOT = 0

CCSDS_OMM_VERS = 2.0
CREATION_DATE  = 
ORIGINATOR     = 

OBJECT_NAME    = COSMOS 2242
OBJECT_ID      = 1993-024A
CENTER_NAME    = EARTH
REF_FRAME      = TEME
TIME_SYSTEM    = UTC
MEAN_ELEMENT_THEORY = SGP/SGP4

EPOCH          = 2025-11-12T12:53:24.771264
MEAN_MOTION    = 14.95924499
ECCENTRICITY   = .00158585
INCLINATION    = 82.5214
RA_OF_ASC_NODE = 18.7058
ARG_OF_PERICENTER = 344.3709
MEAN_ANOMALY   = 15.7021

EPHEMERIS_TYPE = 0
CLASSIFICATION_TYPE = U
NORAD_CAT_ID   = 22626
ELEMENT_SET_NO = 999
REV_AT_EPOCH   = 76287
BSTAR          = .4131571E-3
MEAN_MOTION_DOT = .466E-4
MEAN_MOTION_DDOT = 0

CCSDS_OMM_VERS = 2.0
CREATION_DATE  = 
ORIGINATOR     = 

OBJECT_NAME    = SL-16 R/B
OBJECT_ID      = 1993-059B
CENTER_NAME    = EARTH
REF_FRAME      = TEME
TIME_SYSTEM    = UTC
MEAN_ELEMENT_THEORY = SGP/SGP4

EPOCH          = 2025-11-12T07:28:07.483008
MEAN_MOTION    = 14.17205132
ECCENTRICITY   = .00161302
INCLINATION    = 70.9899
RA_OF_ASC_NODE = 258.6488
ARG_OF_PERICENTER = 21.9042
MEAN_ANOMALY   = 338.2768

EPHEMERIS_TYPE = 0
CLASSIFICATION_TYPE = U
NORAD_CAT_ID   = 22803
ELEMENT_SET_NO = 999
REV_AT_EPOCH   = 66290
BSTAR          = .21886785E-3
MEAN_MOTION_DOT = .394E-5
MEAN_MOTION_DDOT = 0

CCSDS_OMM_VERS = 2.0
CREATION_DATE  = 
ORIGINATOR     = 

OBJECT_NAME    = ARIANE 40 R/B
OBJECT_ID      = 1993-061H
CENTER_NAME    = EARTH
REF_FRAME      = TEME
TIME_SYSTEM    = UTC
MEAN_ELEMENT_THEORY = SGP/SGP4

EPOCH          = 2025-11-12T14:09:00.175104
MEAN_MOTION    = 14.32772790
ECCENTRICITY   = .00096115
INCLINATION    = 98.5112
RA_OF_ASC_NODE = 22.6630
ARG_OF_PERICENTER = 270.5889
MEAN_ANOMALY   = 89.4194

EPHEMERIS_TYPE = 0
CLASSIFICATION_TYPE = U
NORAD_CAT_ID   = 22830
ELEMENT_SET_NO = 999
REV_AT_EPOCH   = 67733
BSTAR          = .21583463E-3
MEAN_MOTION_DOT = .545E-5
MEAN_MOTION_DDOT = 0

CCSDS_OMM_VERS = 2.0
CREATION_DATE  = 
ORIGINATOR     = 

OBJECT_NAME    = COSMOS 2278
OBJECT_ID      = 1994-023A
CENTER_NAME    = EARTH
REF_FRAME      = TEME
TIME_SYSTEM    = UTC
MEAN_ELEMENT_THEORY = SGP/SGP4

EPOCH          = 2025-11-12T16:33:24.047424
MEAN_MOTION    = 14.14337591
ECCENTRICITY   = .00100234
INCLINATION    = 71.0540
RA_OF_ASC_NODE = 59.8762
ARG_OF_PERICENTER = 217.9336
MEAN_ANOMALY   = 142.1081

EPHEMERIS_TYPE = 0
CLASSIFICATION_TYPE = U
NORAD_CAT_ID   = 23087
ELEMENT_SET_NO = 999
REV_AT_EPOCH   = 62826
BSTAR          = .28074543E-3
MEAN_MOTION_DOT = .49E-5
MEAN_MOTION_DDOT = 0

CCSDS_OMM_VERS = 2.0
CREATION_DATE  = 
ORIGINATOR     = 

OBJECT_NAME    = SL-16 R/B
OBJECT_ID      = 1994-023B
CENTER_NAME    = EARTH
REF_FRAME      = TEME
TIME_SYSTEM    = UTC
MEAN_ELEMENT_THEORY = SGP/SGP4

EPOCH          = 2025-11-12T10:28:19.782048
MEAN_MOTION    = 14.14992638
ECCENTRICITY   = .00013832
INCLINATION    = 70.9996
RA_OF_ASC_NODE = 317.1259
ARG_OF_PERICENTER = 164.3752
MEAN_ANOMALY   = 195.7414

EPHEMERIS_TYPE = 0
CLASSIFICATION_TYPE = U
NORAD_CAT_ID   = 23088
ELEMENT_SET_NO = 999
REV_AT_EPOCH   = 62950
BSTAR          = -.44487664E-4
MEAN_MOTION_DOT = -.134E-5
MEAN_MOTION_DDOT = 0

CCSDS_OMM_VERS = 2.0
CREATION_DATE  = 
ORIGINATOR     = 

OBJECT_NAME    = SL-16 R/B
OBJECT_ID      = 1994-074B
CENTER_NAME    = EARTH
REF_FRAME      = TEME
TIME_SYSTEM    = UTC
MEAN_ELEMENT_THEORY = SGP/SGP4

EPOCH          = 2025-11-12T23:30:54.872928
MEAN_MOTION    = 14.79239432
ECCENTRICITY   = .00053473
INCLINATION    = 97.7242
RA_OF_ASC_NODE = 347.4619
ARG_OF_PERICENTER = 234.2241
MEAN_ANOMALY   = 186.9610

EPHEMERIS_TYPE = 0
CLASSIFICATION_TYPE = U
NORAD_CAT_ID   = 23343
ELEMENT_SET_NO = 999
REV_AT_EPOCH   = 66999
BSTAR          = .16974062E-3
MEAN_MOTION_DOT = .1212E-4
MEAN_MOTION_DDOT = 0

CCSDS_OMM_VERS = 2.0
CREATION_DATE  = 
ORIGINATOR     = 

OBJECT_NAME    = SL-16 R/B
OBJECT_ID      = 1994-077B
CENTER_NAME    = EARTH
REF_FRAME      = TEME
TIME_SYSTEM    = UTC
MEAN_ELEMENT_THEORY = SGP/SGP4

EPOCH          = 2025-11-12T12:49:28.566624
MEAN_MOTION    = 14.15544641
ECCENTRICITY   = .00039428
INCLINATION    = 70.9829
RA_OF_ASC_NODE = 238.9553
ARG_OF_PERICENTER = 309.1872
MEAN_ANOMALY   = 50.8901

EPHEMERIS_TYPE = 0
CLASSIFICATION_TYPE = U
NORAD_CAT_ID   = 23405
ELEMENT_SET_NO = 999
REV_AT_EPOCH   = 59965
BSTAR          = .19810918E-3
MEAN_MOTION_DOT = .34E-5
MEAN_MOTION_DDOT = 0

CCSDS_OMM_VERS = 2.0
CREATION_DATE  = 
ORIGINATOR     = 

OBJECT_NAME    = ARIANE 40+ R/B
OBJECT_ID      = 1995-021B
CENTER_NAME    = EARTH
REF_FRAME      = TEME
TIME_SYSTEM    = UTC
MEAN_ELEMENT_THEORY = SGP/SGP4

EPOCH          = 2025-11-12T15:53:58.409376
MEAN_MOTION    = 14.39660351
ECCENTRICITY   = .0007694
INCLINATION    = 98.4687
RA_OF_ASC_NODE = 24.6098
ARG_OF_PERICENTER = 127.9085
MEAN_ANOMALY   = 33.9723

EPHEMERIS_TYPE = 0
CLASSIFICATION_TYPE = U
NORAD_CAT_ID   = 23561
ELEMENT_SET_NO = 999
REV_AT_EPOCH   = 60240
BSTAR          = .25117807E-3
MEAN_MOTION_DOT = .742E-5
MEAN_MOTION_DDOT = 0

CCSDS_OMM_VERS = 2.0
CREATION_DATE  = 
ORIGINATOR     = 

OBJECT_NAME    = SL-16 R/B
OBJECT_ID      = 1995-058B
CENTER_NAME    = EARTH
REF_FRAME      = TEME
TIME_SYSTEM    = UTC
MEAN_ELEMENT_THEORY = SGP/SGP4

EPOCH          = 2025-11-12T14:32:54.557664
MEAN_MOTION    = 14.15476699
ECCENTRICITY   = .00148492
INCLINATION    = 71.0226
RA_OF_ASC_NODE = 66.0666
ARG_OF_PERICENTER = 294.1505
MEAN_ANOMALY   = 65.8065

EPHEMERIS_TYPE = 0
CLASSIFICATION_TYPE = U
NORAD_CAT_ID   = 23705
ELEMENT_SET_NO = 999
REV_AT_EPOCH   = 55128
BSTAR          = .15202513E-4
MEAN_MOTION_DOT = -.18E-6
MEAN_MOTION_DDOT = 0

